NORAD_CAT_ID,OBJECT_NAME,OBJECT_TYPE,EPOCH,MEAN_MOTION,ECCENTRICITY,INCLINATION,RA_OF_ASC_NODE,ARG_OF_PERICENTER,MEAN_ANOMALY,BSTAR,MEAN_MOTION_DOT,MEAN_MOTION_DDOT,TLE_LINE0,TLE_LINE1,TLE_LINE2,SEMIMAJOR_AXIS,PERIOD,APOGEE,PERIGEE,DECAYED
51887.0,STARLINK-3551,PAYLOAD,2022-08-16 06:00:02,15.08848262,0.0001909999999999,53.2171,81.518,63.9879,166.313,-0.0018949,-0.00030326,0.0,0 STARLINK-3551,1 51887U 22022AM  22228.25002315 -.00030326  00000-0 -18949-2 0  9990,2 51887  53.2171  81.5180 0001910  63.9879 166.3130 15.08848262 26761,6917.855,95.437,541.0409999999998,538.399,0.0
51887.0,STARLINK-3551,PAYLOAD,2022-08-16 14:00:01,15.08834405,0.0001891,53.2175,80.0207,70.4393,171.3906,0.0016402,0.00025908,0.0,0 STARLINK-3551,1 51887U 22022AM  22228.58334491  .00025908  00000-0  16402-2 0  9999,2 51887  53.2175  80.0207 0001891  70.4393 171.3906 15.08834405  1305,6917.897,95.438,541.071,538.4540000000002,0.0
51887.0,STARLINK-3551,PAYLOAD,2022-08-16 22:00:00,15.08837975,0.0001999,53.2176,78.52600000000002,63.5727,189.8576,0.00076916,0.00011974,0.0,0 STARLINK-3551,1 51887U 22022AM  22228.91667824  .00011974  00000-0  76916-3 0  9990,2 51887  53.2176  78.5260 0001999  63.5727 189.8576 15.08837975 26860,6917.887,95.438,541.134,538.369,0.0
51887.0,STARLINK-3551,PAYLOAD,2022-08-17 14:00:01,15.08827637,0.0001773,53.2179,75.5316,70.759,205.8618,0.0012621,0.00019849,0.0,0 STARLINK-3551,1 51887U 22022AM  22229.58334491  .00019849  00000-0  12621-2 0  9996,2 51887  53.2179  75.5316 0001773  70.7590 205.8618 15.08827637 26961,6917.918000000002,95.438,541.01,538.557,0.0
51887.0,STARLINK-3551,PAYLOAD,2022-08-17 16:00:00,15.08845585,0.000178,53.218,75.158,69.0518,300.4604,-0.00090871,-0.00014723,0.0,0 STARLINK-3551,1 51887U 22022AM  22229.66667824 -.00014723  00000-0 -90871-3 0  9996,2 51887  53.2180  75.1580 0001780  69.0518 300.4604 15.08845585  1301,6917.863,95.437,540.96,538.497,0.0
51887.0,STARLINK-3551,PAYLOAD,2022-08-18 14:00:01,15.08859457,0.0001723,53.2181,71.0427,72.1287,239.2762,0.00036623,5.548e-05,0.0,0 STARLINK-3551,1 51887U 22022AM  22230.58334491  .00005548  00000-0  36623-3 0  9998,2 51887  53.2181  71.0427 0001723  72.1287 239.2762 15.08859457  1309,6917.821,95.436,540.878,538.494,0.0
51887.0,STARLINK-3551,PAYLOAD,2022-08-18 22:00:00,15.08840201,0.0001776,53.218,69.5482,63.7346,259.2974,-0.00018379,-3.212e-05,0.0,0 STARLINK-3551,1 51887U 22022AM  22230.91667824 -.00003212  00000-0 -18379-3 0  9990,2 51887  53.2180  69.5482 0001776  63.7346 259.2974 15.08840201  1305,6917.88,95.438,540.9730000000002,538.516,0.0
51887.0,STARLINK-3551,PAYLOAD,2022-08-19 14:00:01,15.08827163,0.0001516,53.2178,66.554,70.8028,275.4118,0.00057686,8.901e-05,0.0,0 STARLINK-3551,1 51887U 22022AM  22231.58334491  .00008901  00000-0  57686-3 0  9997,2 51887  53.2178  66.5540 0001516  70.8028 275.4118 15.08827163  1304,6917.92,95.438,540.8330000000002,538.736,0.0
51887.0,STARLINK-3551,PAYLOAD,2022-08-19 22:00:00,15.08809942,0.0001645,53.2177,65.0595,62.6402,295.1546,0.0018082999999999,0.00028585,0.0,0 STARLINK-3551,1 51887U 22022AM  22231.91667824  .00028585  00000-0  18083-2 0  9990,2 51887  53.2177  65.0595 0001645  62.6402 295.1546 15.08809942  1304,6917.972,95.439,540.975,538.6990000000002,0.0
51887.0,STARLINK-3551,PAYLOAD,2022-08-20 06:00:00,15.08836505,0.0001547,53.2174,63.5619,66.1978,303.1669,-0.0010924,-0.0001763,0.0,0 STARLINK-3551,1 51887U 22022AM  22232.25001157 -.00017630  00000-0 -10924-2 0  9996,2 51887  53.2174  63.5619 0001547  66.1978 303.1669 15.08836505 27375,6917.891,95.438,540.826,538.686,0.0
51887.0,STARLINK-3551,PAYLOAD,2022-08-20 14:00:01,15.08844639,0.0001551999999999,53.2175,62.0654,70.9759,309.9694,2.4922e-05,1.09e-06,0.0,0 STARLINK-3551,1 51887U 22022AM  22232.58334491  .00000109  00000-0  24922-4 0  9998,2 51887  53.2175  62.0654 0001552  70.9759 309.9694 15.08844639  1309,6917.866,95.437,540.805,538.658,0.0
51887.0,STARLINK-3551,PAYLOAD,2022-08-20 22:00:00,15.08822976,0.0001654,53.2174,60.5708,62.574,329.9736,0.0022419,0.00035556,0.0,0 STARLINK-3551,1 51887U 22022AM  22232.91667824  .00035556  00000-0  22419-2 0  9995,2 51887  53.2174  60.5708 0001654  62.5740 329.9736 15.08822976  1300,6917.932,95.439,540.942,538.653,0.0
51887.0,STARLINK-3551,PAYLOAD,2022-08-21 14:00:01,15.08833167,0.0001496,53.2174,57.5765,68.5484,347.17900000000014,-0.00046767,-7.722e-05,0.0,0 STARLINK-3551,1 51887U 22022AM  22233.58334491 -.00007722  00000-0 -46767-3 0  9999,2 51887  53.2174  57.5765 0001496  68.5484 347.1790 15.08833167  1300,6917.901,95.438,540.8009999999998,538.731,0.0
51887.0,STARLINK-3551,PAYLOAD,2022-08-21 22:00:00,15.08805393,0.00016,53.2175,56.0818,60.145,7.1691,0.0025724,0.00040851,0.0,0 STARLINK-3551,1 51887U 22022AM  22233.91667824  .00040851  00000-0  25724-2 0  9992,2 51887  53.2175  56.0818 0001600  60.1450   7.1691 15.08805393  1305,6917.986,95.44,540.9580000000002,538.744,0.0
51887.0,STARLINK-3551,PAYLOAD,2022-08-22 12:00:00,15.08828432,0.0001528,53.2176,53.4611,68.8248,288.7489,0.0014983,0.0002363,0.0,0 STARLINK-3551,1 51887U 22022AM  22234.50001157  .00023630  00000-0  14983-2 0  9990,2 51887  53.2176  53.4611 0001528  68.8248 288.7489 15.08828432  1308,6917.916,95.438,540.8380000000002,538.724,0.0
51887.0,STARLINK-3551,PAYLOAD,2022-08-22 22:00:00,15.08817159,0.000165,53.2177,51.5926,59.2708,42.8006,0.002926,0.00046558,0.0,0 STARLINK-3551,1 51887U 22022AM  22234.91667824  .00046558  00000-0  29260-2 0  9992,2 51887  53.2177  51.5926 0001650  59.2708  42.8006 15.08817159 27775,6917.95,95.439,540.957,538.674,0.0
51887.0,STARLINK-3551,PAYLOAD,2022-08-23 14:00:01,15.08873671,0.0001556,53.218,48.5983,66.1502,59.102,-0.0039728,-0.0006302,0.0,0 STARLINK-3551,1 51887U 22022AM  22235.58334491 -.00063020  00000-0 -39728-2 0  9992,2 51887  53.2180  48.5983 0001556  66.1502  59.1020 15.08873671 27871,6917.776999999999,95.435,540.719,538.566,0.0
51887.0,STARLINK-3551,PAYLOAD,2022-08-23 22:00:01,15.08800038,0.000158,53.218,47.1033,56.862,80.0699,0.0030237,0.0004811,0.0,0 STARLINK-3551,1 51887U 22022AM  22235.91668981  .00048110  00000-0  30237-2 0  9990,2 51887  53.2180  47.1033 0001580  56.8620  80.0699 15.08800038  1308,6918.003000000002,95.44,540.961,538.774,0.0
51887.0,STARLINK-3551,PAYLOAD,2022-08-24 06:00:00,15.08820847,0.0001435,53.2182,45.6053,63.2655,85.1785,0.00077285,0.00012027,0.0,0 STARLINK-3551,1 51887U 22022AM  22236.25001157  .00012027  00000-0  77285-3 0  9997,2 51887  53.2182  45.6053 0001435  63.2655  85.1785 15.08820847 27977,6917.939,95.439,540.797,538.811,0.0
51887.0,STARLINK-3551,PAYLOAD,2022-08-24 14:00:01,15.08847003,0.0001504,53.2183,44.1072,65.2899,94.726,-0.0014726,-0.00023652,0.0,0 STARLINK-3551,1 51887U 22022AM  22236.58334491 -.00023652  00000-0 -14726-2 0  9991,2 51887  53.2183  44.1072 0001504  65.2899  94.7260 15.08847003  1308,6917.859,95.437,540.764,538.684,0.0
51887.0,STARLINK-3551,PAYLOAD,2022-08-24 22:00:00,15.08812234,0.0001575999999999,53.2181,42.6141,56.9351,114.6797,0.0030488,0.00048531,0.0,0 STARLINK-3551,1 51887U 22022AM  22236.91667824  .00048531  00000-0  30488-2 0  9991,2 51887  53.2181  42.6141 0001576  56.9351 114.6797 15.08812234  1300,6917.965,95.439,540.9209999999998,538.74,0.0
51887.0,STARLINK-3551,PAYLOAD,2022-08-25 06:00:02,15.08826373,0.0001412,53.2182,41.11600000000001,64.523,118.7427,0.0012282,0.00019306,0.0,0 STARLINK-3551,1 51887U 22022AM  22237.25002315  .00019306  00000-0  12282-2 0  9997,2 51887  53.2182  41.1160 0001412  64.5230 118.7427 15.08826373 28129,6917.922,95.438,540.764,538.81,0.0
51887.0,STARLINK-3551,PAYLOAD,2022-08-25 14:00:01,15.08856134,0.0001476,53.2185,39.6188,66.0601,128.7253,-0.0016753,-0.00026863,0.0,0 STARLINK-3551,1 51887U 22022AM  22237.58334491 -.00026863  00000-0 -16753-2 0  9991,2 51887  53.2185  39.6188 0001476  66.0601 128.7253 15.08856134  1300,6917.831,95.437,540.717,538.675,0.0
51887.0,STARLINK-3551,PAYLOAD,2022-08-25 22:00:00,15.08824519,0.0001538,53.2181,38.1249,57.9599,148.4358,0.0027683,0.00044026,0.0,0 STARLINK-3551,1 51887U 22022AM  22237.91667824  .00044026  00000-0  27683-2 0  9990,2 51887  53.2181  38.1249 0001538  57.9599 148.4358 15.08824519  1309,6917.928000000001,95.439,540.857,538.729,0.0
51887.0,STARLINK-3551,PAYLOAD,2022-08-26 06:00:00,15.08831284,0.0001384,53.2181,36.6268,66.1988,151.7979,0.0016779,0.0002651,0.0,0 STARLINK-3551,1 51887U 22022AM  22238.25001157  .00026510  00000-0  16779-2 0  9991,2 51887  53.2181  36.6268 0001384  66.1988 151.7979 15.08831284 28274,6917.906999999997,95.438,540.729,538.815,0.0
51887.0,STARLINK-3551,PAYLOAD,2022-08-26 14:00:01,15.08868766,0.0001424,53.2182,35.1312,66.5373,163.1152,-0.0021085,-0.00033714,0.0,0 STARLINK-3551,1 51887U 22022AM  22238.58335648 -.00033714  00000-0 -21085-2 0  9994,2 51887  53.2182  35.1312 0001424  66.5373 163.1152 15.08868766  1306,6917.792,95.436,540.643,538.672,0.0
51887.0,STARLINK-3551,PAYLOAD,2022-08-26 22:00:00,15.0882411,0.0001554,53.2178,33.6358,57.9926,183.188,0.0023225,0.00036852,0.0,0 STARLINK-3551,1 51887U 22022AM  22238.91667824  .00036852  00000-0  23225-2 0  9997,2 51887  53.2178  33.6358 0001554  57.9926 183.1880 15.08824110 28377,6917.929,95.439,540.869,538.719,0.0
51887.0,STARLINK-3551,PAYLOAD,2022-08-27 14:00:01,15.08883305,0.0001496999999999,53.2176,30.6357,67.8813,196.4862,-0.0051078,-0.00080763,0.0,0 STARLINK-3551,1 51887U 22022AM  22239.58334491 -.00080763  00000-0 -51078-2 0  9991,2 51887  53.2176  30.6357 0001497  67.8813 196.4862 15.08883305  1304,6917.748000000001,95.435,540.649,538.577,0.0
51887.0,STARLINK-3551,PAYLOAD,2022-08-27 22:00:00,15.08843721,0.000152,53.2176,29.1467,57.9729,218.0064,0.0012988,0.00020445,0.0,0 STARLINK-3551,1 51887U 22022AM  22239.91667824  .00020445  00000-0  12988-2 0  9993,2 51887  53.2176  29.1467 0001520  57.9729 218.0064 15.08843721 28528,6917.869000000002,95.437,540.786,538.682,0.0
